STARLINK-1741           
1 46567U 20070AM  23169.64785244  .00013047  00000+0  89409-3 0  9995
2 46567  53.0543 303.5356 0001302  85.4469 274.6669 15.06361605149813
STARLINK-1747           
1 46569U 20070AP  23169.66259436  .00010795  00000+0  74329-3 0  9990
2 46569  53.0555 303.4653 0000437  67.4031 292.7005 15.06357671149813
STARLINK-1748           
1 46570U 20070AQ  23169.46591539  .00011830  00000+0  49913-3 0  9995
2 46570  53.0249 281.5426 0002158  34.4029 325.7106 15.23721856150104
STARLINK-1531           
1 46572U 20070AS  23169.83305389  .00022091  00000+0  14989-2 0  9999
2 46572  53.0543 322.6910 0001430  90.7712 269.3441 15.06360679149571
STARLINK-1650           
1 46573U 20070AT  23170.24070836  .00410654  77565-4  10797-2 0  9997
2 46573  53.0307 224.5568 0011326  10.7139 101.4059 15.94175317150965
STARLINK-1660           
1 46574U 20070AU  23169.79667020  .00022625  00000+0  15345-2 0  9999
2 46574  53.0553 307.8671 0001402  82.2138 277.9011 15.06361974149768
STARLINK-1675           
1 46575U 20070AV  23169.58703908 -.00000583  00000+0 -20230-4 0  9995
2 46575  53.0547 283.8049 0002302  89.7500 270.3753 15.06392833150073
STARLINK-1677           
1 46576U 20070AW  23169.78930711  .00021259  00000+0  14432-2 0  9998
2 46576  53.0541 307.9010 0001301  84.8208 275.2929 15.06362765149767
STARLINK-1682           
1 46577U 20070AX  23169.75245495  .00021526  00000+0  14606-2 0  9994
2 46577  53.0549 308.0693 0001335  94.7927 265.3215 15.06375359149750
STARLINK-1683           
1 46578U 20070AY  23170.06530219  .00020321  00000+0  13794-2 0  9991
2 46578  53.0542 291.7097 0001188  81.3066 278.8057 15.06394182149716
STARLINK-1705           
1 46579U 20070AZ  23169.80404692  .00022554  00000+0  15301-2 0  9993
2 46579  53.0551 307.8304 0001157  83.9420 276.1700 15.06353188149767
STARLINK-1708           
1 46580U 20070BA  23169.64923910  .00019133  00000+0  13013-2 0  9993
2 46580  53.0552 308.5275 0001166  83.7423 276.3699 15.06359944149749
STARLINK-1712           
1 46581U 20070BB  23169.74737604  .00021574  00000+0  14644-2 0  9991
2 46581  53.0542 303.0907 0001400  89.3181 270.7968 15.06359661149827
STARLINK-1728           
1 46582U 20070BC  23169.66627794  .00017779  00000+0  12107-2 0  9995
2 46582  53.0555 303.4490 0001034 112.0338 248.0761 15.06360878149814
