[{
    "OBJECT_NAME": "STARLINK-1741",
    "OBJECT_ID": "2020-070AM",
    "EPOCH": "2023-06-18T15:32:54.450816",
    "MEAN_MOTION": 15.06361605,
    "ECCENTRICITY": 0.0001302,
    "INCLINATION": 53.0543,
    "RA_OF_ASC_NODE": 303.5356,
    "ARG_OF_PERICENTER": 85.4469,
    "MEAN_ANOMALY": 274.6669,
    "EPHEMERIS_TYPE": 0,
    "CLASSIFICATION_TYPE": "U",
    "NORAD_CAT_ID": 46567,
    "ELEMENT_SET_NO": 999,
    "REV_AT_EPOCH": 14981,
    "BSTAR": 0.00089409,
    "MEAN_MOTION_DOT": 0.00013047,
    "MEAN_MOTION_DDOT": 0
},{
    "OBJECT_NAME": "STARLINK-1747",
    "OBJECT_ID": "2020-070AP",
    "EPOCH": "2023-06-18T15:54:08.152704",
    "MEAN_MOTION": 15.06357671,
    "ECCENTRICITY": 4.37e-5,
    "INCLINATION": 53.0555,
    "RA_OF_ASC_NODE": 303.4653,
    "ARG_OF_PERICENTER": 67.4031,
    "MEAN_ANOMALY": 292.7005,
    "EPHEMERIS_TYPE": 0,
    "CLASSIFICATION_TYPE": "U",
    "NORAD_CAT_ID": 46569,
    "ELEMENT_SET_NO": 999,
    "REV_AT_EPOCH": 14981,
    "BSTAR": 0.00074329,
    "MEAN_MOTION_DOT": 0.00010795,
    "MEAN_MOTION_DDOT": 0
},{
    "OBJECT_NAME": "STARLINK-1748",
    "OBJECT_ID": "2020-070AQ",
    "EPOCH": "2023-06-18T11:10:55.089696",
    "MEAN_MOTION": 15.23721856,
    "ECCENTRICITY": 0.0002158,
    "INCLINATION": 53.0249,
    "RA_OF_ASC_NODE": 281.5426,
    "ARG_OF_PERICENTER": 34.4029,
    "MEAN_ANOMALY": 325.7106,
    "EPHEMERIS_TYPE": 0,
    "CLASSIFICATION_TYPE": "U",
    "NORAD_CAT_ID": 46570,
    "ELEMENT_SET_NO": 999,
    "REV_AT_EPOCH": 15010,
    "BSTAR": 0.00049913,
    "MEAN_MOTION_DOT": 0.0001183,
    "MEAN_MOTION_DDOT": 0
},{
    "OBJECT_NAME": "STARLINK-1531",
    "OBJECT_ID": "2020-070AS",
    "EPOCH": "2023-06-18T19:59:35.856096",
    "MEAN_MOTION": 15.06360679,
    "ECCENTRICITY": 0.000143,
    "INCLINATION": 53.0543,
    "RA_OF_ASC_NODE": 322.691,
    "ARG_OF_PERICENTER": 90.7712,
    "MEAN_ANOMALY": 269.3441,
    "EPHEMERIS_TYPE": 0,
    "CLASSIFICATION_TYPE": "U",
    "NORAD_CAT_ID": 46572,
    "ELEMENT_SET_NO": 999,
    "REV_AT_EPOCH": 14957,
    "BSTAR": 0.0014989,
    "MEAN_MOTION_DOT": 0.00022091,
    "MEAN_MOTION_DDOT": 0
},{
    "OBJECT_NAME": "STARLINK-1650",
    "OBJECT_ID": "2020-070AT",
    "EPOCH": "2023-06-19T05:46:37.202304",
    "MEAN_MOTION": 15.94175317,
    "ECCENTRICITY": 0.0011326,
    "INCLINATION": 53.0307,
    "RA_OF_ASC_NODE": 224.5568,
    "ARG_OF_PERICENTER": 10.7139,
    "MEAN_ANOMALY": 101.4059,
    "EPHEMERIS_TYPE": 0,
    "CLASSIFICATION_TYPE": "U",
    "NORAD_CAT_ID": 46573,
    "ELEMENT_SET_NO": 999,
    "REV_AT_EPOCH": 15096,
    "BSTAR": 0.0010797,
    "MEAN_MOTION_DOT": 0.00410654,
    "MEAN_MOTION_DDOT": 7.7565e-5
},{
    "OBJECT_NAME": "STARLINK-1660",
    "OBJECT_ID": "2020-070AU",
    "EPOCH": "2023-06-18T19:07:12.305280",
    "MEAN_MOTION": 15.06361974,
    "ECCENTRICITY": 0.0001402,
    "INCLINATION": 53.0553,
    "RA_OF_ASC_NODE": 307.8671,
    "ARG_OF_PERICENTER": 82.2138,
    "MEAN_ANOMALY": 277.9011,
    "EPHEMERIS_TYPE": 0,
    "CLASSIFICATION_TYPE": "U",
    "NORAD_CAT_ID": 46574,
    "ELEMENT_SET_NO": 999,
    "REV_AT_EPOCH": 14976,
    "BSTAR": 0.0015345,
    "MEAN_MOTION_DOT": 0.00022625,
    "MEAN_MOTION_DDOT": 0
},{
    "OBJECT_NAME": "STARLINK-1675",
    "OBJECT_ID": "2020-070AV",
    "EPOCH": "2023-06-18T14:05:20.176512",
    "MEAN_MOTION": 15.06392833,
    "ECCENTRICITY": 0.0002302,
    "INCLINATION": 53.0547,
    "RA_OF_ASC_NODE": 283.8049,
    "ARG_OF_PERICENTER": 89.75,
    "MEAN_ANOMALY": 270.3753,
    "EPHEMERIS_TYPE": 0,
    "CLASSIFICATION_TYPE": "U",
    "NORAD_CAT_ID": 46575,
    "ELEMENT_SET_NO": 999,
    "REV_AT_EPOCH": 15007,
    "BSTAR": -2.023e-5,
    "MEAN_MOTION_DOT": -5.83e-6,
    "MEAN_MOTION_DDOT": 0
},{
    "OBJECT_NAME": "STARLINK-1677",
    "OBJECT_ID": "2020-070AW",
    "EPOCH": "2023-06-18T18:56:36.134304",
    "MEAN_MOTION": 15.06362765,
    "ECCENTRICITY": 0.0001301,
    "INCLINATION": 53.0541,
    "RA_OF_ASC_NODE": 307.901,
    "ARG_OF_PERICENTER": 84.8208,
    "MEAN_ANOMALY": 275.2929,
    "EPHEMERIS_TYPE": 0,
    "CLASSIFICATION_TYPE": "U",
    "NORAD_CAT_ID": 46576,
    "ELEMENT_SET_NO": 999,
    "REV_AT_EPOCH": 14976,
    "BSTAR": 0.0014432,
    "MEAN_MOTION_DOT": 0.00021259,
    "MEAN_MOTION_DDOT": 0
},{
    "OBJECT_NAME": "STARLINK-1682",
    "OBJECT_ID": "2020-070AX",
    "EPOCH": "2023-06-18T18:03:32.107680",
    "MEAN_MOTION": 15.06375359,
    "ECCENTRICITY": 0.0001335,
    "INCLINATION": 53.0549,
    "RA_OF_ASC_NODE": 308.0693,
    "ARG_OF_PERICENTER": 94.7927,
    "MEAN_ANOMALY": 265.3215,
    "EPHEMERIS_TYPE": 0,
    "CLASSIFICATION_TYPE": "U",
    "NORAD_CAT_ID": 46577,
    "ELEMENT_SET_NO": 999,
    "REV_AT_EPOCH": 14975,
    "BSTAR": 0.0014606,
    "MEAN_MOTION_DOT": 0.00021526,
    "MEAN_MOTION_DDOT": 0
},{
    "OBJECT_NAME": "STARLINK-1683",
    "OBJECT_ID": "2020-070AY",
    "EPOCH": "2023-06-19T01:34:02.109216",
    "MEAN_MOTION": 15.06394182,
    "ECCENTRICITY": 0.0001188,
    "INCLINATION": 53.0542,
    "RA_OF_ASC_NODE": 291.7097,
    "ARG_OF_PERICENTER": 81.3066,
    "MEAN_ANOMALY": 278.8057,
    "EPHEMERIS_TYPE": 0,
    "CLASSIFICATION_TYPE": "U",
    "NORAD_CAT_ID": 46578,
    "ELEMENT_SET_NO": 999,
    "REV_AT_EPOCH": 14971,
    "BSTAR": 0.0013794,
    "MEAN_MOTION_DOT": 0.00020321,
    "MEAN_MOTION_DDOT": 0
},{
    "OBJECT_NAME": "STARLINK-1705",
    "OBJECT_ID": "2020-070AZ",
    "EPOCH": "2023-06-18T19:17:49.653888",
    "MEAN_MOTION": 15.06353188,
    "ECCENTRICITY": 0.0001157,
    "INCLINATION": 53.0551,
    "RA_OF_ASC_NODE": 307.8304,
    "ARG_OF_PERICENTER": 83.942,
    "MEAN_ANOMALY": 276.17,
    "EPHEMERIS_TYPE": 0,
    "CLASSIFICATION_TYPE": "U",
    "NORAD_CAT_ID": 46579,
    "ELEMENT_SET_NO": 999,
    "REV_AT_EPOCH": 14976,
    "BSTAR": 0.0015301,
    "MEAN_MOTION_DOT": 0.00022554,
    "MEAN_MOTION_DDOT": 0
},{
    "OBJECT_NAME": "STARLINK-1708",
    "OBJECT_ID": "2020-070BA",
    "EPOCH": "2023-06-18T15:34:54.258240",
    "MEAN_MOTION": 15.06359944,
    "ECCENTRICITY": 0.0001166,
    "INCLINATION": 53.0552,
    "RA_OF_ASC_NODE": 308.5275,
    "ARG_OF_PERICENTER": 83.7423,
    "MEAN_ANOMALY": 276.3699,
    "EPHEMERIS_TYPE": 0,
    "CLASSIFICATION_TYPE": "U",
    "NORAD_CAT_ID": 46580,
    "ELEMENT_SET_NO": 999,
    "REV_AT_EPOCH": 14974,
    "BSTAR": 0.0013013,
    "MEAN_MOTION_DOT": 0.00019133,
    "MEAN_MOTION_DDOT": 0
},{
    "OBJECT_NAME": "STARLINK-1712",
    "OBJECT_ID": "2020-070BB",
    "EPOCH": "2023-06-18T17:56:13.289856",
    "MEAN_MOTION": 15.06359661,
    "ECCENTRICITY": 0.00014,
    "INCLINATION": 53.0542,
    "RA_OF_ASC_NODE": 303.0907,
    "ARG_OF_PERICENTER": 89.3181,
    "MEAN_ANOMALY": 270.7968,
    "EPHEMERIS_TYPE": 0,
    "CLASSIFICATION_TYPE": "U",
    "NORAD_CAT_ID": 46581,
    "ELEMENT_SET_NO": 999,
    "REV_AT_EPOCH": 14982,
    "BSTAR": 0.0014644,
    "MEAN_MOTION_DOT": 0.00021574,
    "MEAN_MOTION_DDOT": 0
},{
    "OBJECT_NAME": "STARLINK-1728",
    "OBJECT_ID": "2020-070BC",
    "EPOCH": "2023-06-18T15:59:26.414016",
    "MEAN_MOTION": 15.06360878,
    "ECCENTRICITY": 0.0001034,
    "INCLINATION": 53.0555,
    "RA_OF_ASC_NODE": 303.449,
    "ARG_OF_PERICENTER": 112.0338,
    "MEAN_ANOMALY": 248.0761,
    "EPHEMERIS_TYPE": 0,
    "CLASSIFICATION_TYPE": "U",
    "NORAD_CAT_ID": 46582,
    "ELEMENT_SET_NO": 999,
    "REV_AT_EPOCH": 14981,
    "BSTAR": 0.0012107,
    "MEAN_MOTION_DOT": 0.00017779,
    "MEAN_MOTION_DDOT": 0
}]